IRIDIUM 106             
1 41917U 17003A   24361.24997823  .00000386  00000+0  13076-3 0  9999
2 41917  86.3969 313.3220 0001999  91.6172 268.5253 14.34217465416103
IRIDIUM 103             
1 41918U 17003B   24361.23729303  .00000268  00000+0  88789-4 0  9998
2 41918  86.3969 313.2283 0001835  68.7975 291.3417 14.34218278416128
IRIDIUM 109             
1 41919U 17003C   24361.24363759 -.00000105  00000+0 -44700-4 0  9996
2 41919  86.3969 313.2767 0002212  79.8075 280.3370 14.34216889416098
IRIDIUM 102             
1 41920U 17003D   24361.28169284 -.00000046  00000+0 -23408-4 0  9995
2 41920  86.3968 313.1958 0002116  85.8896 274.2541 14.34217179416186
IRIDIUM 105             
1 41921U 17003E   24361.25243490  .00000856  00000+0  29848-3 0  9995
2 41921  86.3968 281.6291 0002056  84.0094 276.1336 14.34221035418035
IRIDIUM 104             
1 41922U 17003F   24361.29437730  .00000098  00000+0  27957-4 0  9990
2 41922  86.3968 313.2245 0002504  74.3200 285.8272 14.34218316416173
IRIDIUM 114             
1 41923U 17003G   24361.23094989  .00000836  00000+0  29132-3 0  9996
2 41923  86.3969 313.2363 0002016  79.9447 280.1976 14.34217775416142
IRIDIUM 108             
1 41924U 17003H   24361.25923780  .00000471  00000+0  16100-3 0  9995
2 41924  86.3962 281.5385 0002075  88.5401 271.6032 14.34213567418008
